SAR-LUPE 2              
1 31797U 07030A   26162.59981807  .00031465  00000+0  57346-3 0  9997
2 31797  98.1029 266.3450 0006203 151.1077 209.0516 15.49398966 56078
SAPPHIRE                
1 39088U 13009C   26162.58466302  .00000098  00000+0  49342-4 0  9994
2 39088  98.4258 342.1736 0009982 265.3198  94.6847 14.35238992695772
PRAETORIAN SDA_602      
1 65565U 25203A   26162.60334060  .00000050  00000+0  33695-4 0  9992
2 65565  81.3034  15.9418 0005480 199.8942 160.2002 13.84342252 37921
PRAETORIAN SDA_603      
1 65566U 25203B   26162.62826266  .00000250  00000+0  21449-3 0  9994
2 65566  81.3039  15.8314 0009054 202.9835 157.0918 13.83905387 37933
PRAETORIAN SDA_604      
1 65567U 25203C   26162.57219202  .00000075  00000+0  57781-4 0  9999
2 65567  81.3057  16.2870 0004975 208.0160 152.0729 13.83047087 37907
PRAETORIAN SDA_605      
1 65568U 25203D   26162.61141570  .00000051  00000+0  35882-4 0  9999
2 65568  81.3022  15.9191 0007799 198.4916 161.5958 13.83433809 37922
PRAETORIAN SDA_606      
1 65569U 25203E   26162.59385515  .00000060  00000+0  43549-4 0  9995
2 65569  81.3057  16.1548 0005407 196.8819 163.2158 13.83406816 37916
PRAETORIAN SDA_607      
1 65570U 25203F   26162.60542883  .00000300  00000+0  25853-3 0  9996
2 65570  81.3039  15.8159 0008360 203.1288 156.9493 13.84284230 37933
PRAETORIAN SDA_608      
1 65571U 25203G   26162.58094435  .00000063  00000+0  45890-4 0  9999
2 65571  81.3009  15.9981 0005498 207.0291 153.0580 13.83816400 37913
PRAETORIAN SDA_609      
1 65572U 25203H   26162.58748031  .00000215  00000+0  18172-3 0  9999
2 65572  81.3051  15.9759 0006321 200.5036 159.5868 13.84250808 37921
PRAETORIAN SDA_610      
1 65573U 25203J   26162.63314293  .00000055  00000+0  38615-4 0  9992
2 65573  81.3010  15.9080 0006161 204.2044 155.8824 13.83851529 37923
PRAETORIAN SDA_611      
1 65574U 25203K   26162.63174665  .00000446  00000+0  39540-3 0  9991
2 65574  81.3015  16.0707 0005074 210.8028 149.2831 13.83309213 37916
PRAETORIAN SDA_612      
1 65575U 25203L   26162.55605307  .00000226  00000+0  18928-3 0  9998
2 65575  81.3031  15.7407 0008789 202.6891 157.3879 13.85038662 37934
PRAETORIAN SDA_613      
1 65576U 25203M   26162.56395018  .00000057  00000+0  41524-4 0  9996
2 65576  81.3002  16.1257 0005254 199.9183 160.1769 13.82764657 37901
PRAETORIAN SDA_614      
1 65577U 25203N   26162.61642239  .00000047  00000+0  31216-4 0  9999
2 65577  81.3018  15.7610 0006715 199.3317 160.7586 13.84777843 37943
PRAETORIAN SDA_615      
1 65578U 25203P   26162.59193415  .00000166  00000+0  13730-3 0  9996
2 65578  81.3026  15.7435 0008554 201.4064 158.6736 13.84436112 37938
PRAETORIAN SDA_616      
1 65579U 25203Q   26162.63079394  .00000201  00000+0  17275-3 0  9999
2 65579  81.3063  16.2128 0004965 208.5681 151.5204 13.83267726 37912
PRAETORIAN SDA_617      
1 65580U 25203R   26162.57958673  .00000038  00000+0  24042-4 0  9999
2 65580  81.3039  16.0918 0006961 199.8696 160.2190 13.83149908 37910
PRAETORIAN SDA_618      
1 65581U 25203S   26162.63118524  .00000213  00000+0  17931-3 0  9993
2 65581  81.3022  15.6394 0009316 203.3878 156.6857 13.84669558 37947
PRAETORIAN SDA_619      
1 65582U 25203T   26162.59136313  .00000250  00000+0  21506-3 0  9999
2 65582  81.3046  15.9642 0007722 201.7989 158.2840 13.83805607 38551
PRAETORIAN SDA_620      
1 65583U 25203U   26162.61859513  .00000241  00000+0  20764-3 0  9992
2 65583  81.3032  15.9595 0007239 196.3682 163.7241 13.83617655 37926
PRAETORIAN SDA_621      
1 65584U 25203V   26162.59311904  .00000059  00000+0  42130-4 0  9996
2 65584  81.3024  15.9031 0007045 194.3266 165.7692 13.83800813 37926
PRAETORIAN SDA_601      
1 65585U 25203W   26162.63352784  .00000312  00000+0  27419-3 0  9997
2 65585  81.3050  16.1563 0004945 212.2647 147.8207 13.83167238 37917
